0 COSMOS 397 DEB
1 05156U 71015AK  13282.27386766  .00005625  00000-0  16918-2 0  7636
2 05156 065.6903 230.7785 0733061 308.8164 044.9580 13.47441956 37509
0 COSMOS 397 DEB
1 05156U 71015AK  13283.31295827  .00004806  00000-0  14502-2 0  7647
2 05156 065.6902 228.2894 0733031 308.3600 045.3724 13.47450206 37646
0 COSMOS 397 DEB
1 05156U 71015AK  13286.13331446  .00003600  00000-0  10939-2 0  7661
2 05156 065.6904 221.5328 0733000 307.1204 046.4992 13.47472501 38023
0 COSMOS 397 DEB
1 05156U 71015AK  13287.24659979  .00003898  00000-0  11815-2 0  7672
2 05156 065.6908 218.8656 0732981 306.6303 046.9454 13.47478979 38170
0 COSMOS 397 DEB
1 05156U 71015AK  13289.17627694  .00004695  00000-0  14163-2 0  7681
2 05156 065.6915 214.2423 0732927 305.7794 047.7215 13.47499208 38435
0 COSMOS 397 DEB
1 05156U 71015AK  13290.95749635  .00003806  00000-0  11542-2 0  7691
2 05156 065.6916 209.9751 0732850 304.9965 048.4370 13.47512588 38670
0 COSMOS 397 DEB
1 05156U 71015AK  13292.14496644  .00003262  00000-0  99372-3 0  7709
2 05156 065.6913 207.1298 0732816 304.4781 048.9112 13.47520136 38831
0 COSMOS 397 DEB
1 05156U 71015AK  13293.18399609  .00003713  00000-0  11267-2 0  7715
2 05156 065.6910 204.6403 0732786 304.0163 049.3341 13.47527125 38973
0 COSMOS 397 DEB
1 05156U 71015AK  13294.29723597  .00004091  00000-0  12380-2 0  7723
2 05156 065.6908 201.9737 0732782 303.5234 049.7856 13.47535255 39125
0 COSMOS 397 DEB
1 05156U 71015AK  13295.85576233  .00003625  00000-0  11002-2 0  7732
2 05156 065.6903 198.2401 0732794 302.8373 050.4147 13.47545707 39333
